     2.100          NAVIGATION                              RINEX VERSION / TYPE
fic2rin                                 01/07/2018 00:06:53 PGM / RUN BY / DATE
                                                            END OF HEADER
 8 18  1  6  8  0  0.0 -.867121852934D-04 -.136424205266D-11  .000000000000D+00
     .750000000000D+02  .668125000000D+02  .459804867004D-08 -.164834756425D+01
     .341050326824D-05  .315312028397D-02  .490061938763D-05  .515374118996D+04
     .547200000000D+06 -.130385160446D-07 -.118381974028D+01  .167638063431D-07
     .968214562160D+00  .293093750000D+03 -.606652689680D+00 -.828963101069D-08
     .344657213499D-09  .100000000000D+01  .198200000000D+04  .000000000000D+00
     .240000000000D+01  .000000000000D+00  .558793544769D-08  .750000000000D+02
     .540006000000D+06  .400000000000D+01
 9 18  1  6  8  0  0.0  .490515958518D-03  .352429196937D-11  .000000000000D+00
     .103000000000D+03  .445000000000D+02  .497877881469D-08 -.185212875235D+01
     .226125121117D-05  .115349004045D-02  .775977969170D-05  .515369943428D+04
     .547200000000D+06  .521540641785D-07  .195768399276D+01  .521540641785D-07
     .952542824021D+00  .225500000000D+03  .172458305610D+01 -.826141554969D-08
     .343228582562D-09  .100000000000D+01  .198200000000D+04  .000000000000D+00
     .240000000000D+01  .000000000000D+00  .139698386192D-08  .103000000000D+03
     .540006000000D+06  .400000000000D+01
10 18  1  6  8  0  0.0  .141724478453D-03  .591171556152D-11  .000000000000D+00
     .970000000000D+02 -.493437500000D+02  .434839541384D-08 -.216449789488D-01
    -.275485217571D-05  .312599376775D-02  .106468796730D-04  .515367385483D+04
     .547200000000D+06  .130385160446D-07  .919200603732D+00  .391155481339D-07
     .960634880767D+00  .173781250000D+03 -.287153796884D+01 -.796211736843D-08
    -.189293599124D-10  .100000000000D+01  .198200000000D+04  .000000000000D+00
     .240000000000D+01  .000000000000D+00  .186264514923D-08  .970000000000D+02
     .540006000000D+06  .400000000000D+01
11 18  1  6  8  0  0.0 -.733146909624D-03 -.113686837722D-11  .000000000000D+00
     .113000000000D+03 -.357187500000D+02  .629597653841D-08  .129603049724D+01
    -.219792127609D-05  .167903681286D-01  .188685953617D-05  .515374883652D+04
     .547200000000D+06 -.298023223877D-07 -.537024315184D+00 -.497326254845D-06
     .903776271372D+00  .313187500000D+03  .173092964970D+01 -.924502794967D-08
     .367872466222D-10  .100000000000D+01  .198200000000D+04  .000000000000D+00
     .340000000000D+01  .000000000000D+00 -.121071934700D-07  .113000000000D+03
     .540006000000D+06  .400000000000D+01
12 18  1  6  8  0  0.0  .356857199222D-03 -.181898940355D-11  .000000000000D+00
     .500000000000D+02  .468437500000D+02  .373837000383D-08  .720772300179D+00
     .230222940445D-05  .675634189975D-02  .108517706394D-04  .515367050743D+04
     .547200000000D+06 -.108033418655D-06 -.215840676336D+01  .484287738800D-07
     .987851014566D+00  .185531250000D+03  .911106487197D+00 -.774817988565D-08
    -.130362572982D-09  .100000000000D+01  .198200000000D+04  .000000000000D+00
     .240000000000D+01  .000000000000D+00 -.125728547573D-07  .500000000000D+02
     .540006000000D+06  .400000000000D+01
13 18  1  6  8  0  0.0 -.951951369643D-04 -.113686837722D-12  .000000000000D+00
     .690000000000D+02  .350312500000D+02  .452876006961D-08  .269227692768D+01
     .187568366528D-05  .370000873227D-02  .733882188797D-05  .515365364075D+04
     .547200000000D+06  .428408384323D-07  .208730047733D+01 -.372529029846D-08
     .968448197492D+00  .242093750000D+03  .164013728909D+01 -.798247535928D-08
     .281083136812D-09  .100000000000D+01  .198200000000D+04  .000000000000D+00
     .240000000000D+01  .000000000000D+00 -.111758708954D-07  .690000000000D+02
     .540006000000D+06  .400000000000D+01
14 18  1  6  8  0  0.0 -.919140875340D-04 -.682121026330D-12  .000000000000D+00
     .740000000000D+02  .448437500000D+02  .463947896721D-08 -.244418980556D+01
     .233389437199D-05  .925344543066D-02  .708550214767D-05  .515372162437D+04
     .547200000000D+06  .521540641785D-07  .204633815815D+01 -.670552253723D-07
     .960969874378D+00  .244000000000D+03 -.195410822452D+01 -.792961601462D-08
     .304298389535D-09  .100000000000D+01  .198200000000D+04  .000000000000D+00
     .240000000000D+01  .000000000000D+00 -.977888703346D-08  .740000000000D+02
     .540006000000D+06  .400000000000D+01
15 18  1  6  8  0  0.0 -.357390847057D-03  .000000000000D+00  .000000000000D+00
     .480000000000D+02  .351875000000D+02  .538022410793D-08 -.296827284898D+01
     .178255140781D-05  .101186600514D-01  .809319317341D-05  .515366790390D+04
     .547200000000D+06 -.130385160446D-07  .189046627173D+01 -.165775418282D-06
     .928100217591D+00  .206750000000D+03  .656549273398D+00 -.831713215622D-08
     .364658046614D-09  .100000000000D+01  .198200000000D+04  .000000000000D+00
     .240000000000D+01  .000000000000D+00 -.107102096081D-07  .480000000000D+02
     .540006000000D+06  .400000000000D+01
16 18  1  6  8  0  0.0  .344770960510D-04 -.568434188608D-12  .000000000000D+00
     .880000000000D+02  .580937500000D+02  .371765485525D-08 -.120911074557D+01
     .292249023914D-05  .966416846495D-02  .101085752249D-04  .515356514168D+04
     .547200000000D+06  .195577740669D-06 -.213951570721D+01 -.987201929092D-07
     .988287501044D+00  .194781250000D+03  .453789045587D+00 -.762281752095D-08
     .135719938995D-10  .100000000000D+01  .198200000000D+04  .000000000000D+00
     .340000000000D+01  .000000000000D+00 -.107102096081D-07  .880000000000D+02
     .540006000000D+06  .400000000000D+01
17 18  1  6  8  0  0.0 -.132900197059D-03  .284217094304D-11  .000000000000D+00
     .710000000000D+02  .662812500000D+02  .427946397114D-08 -.217750027274D+01
     .352226197720D-05  .123513123253D-01  .436045229435D-05  .515374133873D+04
     .547200000000D+06  .189989805222D-06 -.112319889034D+01  .204890966415D-07
     .981588410023D+00  .303718750000D+03 -.180820572982D+01 -.799176146037D-08
     .415017287136D-09  .100000000000D+01  .198200000000D+04  .000000000000D+00
     .240000000000D+01  .000000000000D+00 -.111758708954D-07  .710000000000D+02
     .540006000000D+06  .400000000000D+01
19 18  1  6  8  0  0.0 -.465439632535D-03  .238742359215D-11  .000000000000D+00
     .340000000000D+02  .540937500000D+02  .441482675240D-08  .826815694410D+00
     .291317701340D-05  .972442119382D-02  .482797622681D-05  .515369352531D+04
     .547200000000D+06 -.931322574615D-07 -.107586965178D+01  .223517417908D-07
     .979018152196D+00  .298437500000D+03  .110969590923D+01 -.838392065252D-08
     .232509684962D-09  .100000000000D+01  .198200000000D+04  .000000000000D+00
     .240000000000D+01  .000000000000D+00 -.153668224812D-07  .340000000000D+02
     .540006000000D+06  .400000000000D+01
20 18  1  6  8  0  0.0  .497560482472D-03  .102318153949D-11  .000000000000D+00
     .730000000000D+02 -.680312500000D+02  .510771275674D-08  .305300492369D+01
    -.348687171936D-05  .458367890678D-02  .105015933514D-04  .515377629662D+04
     .547200000000D+06  .633299350739D-07  .817971830896D+00  .931322574615D-08
     .927837130792D+00  .159187500000D+03  .175706708330D+01 -.822069956799D-08
    -.164292557730D-10  .100000000000D+01  .198200000000D+04  .000000000000D+00
     .240000000000D+01  .000000000000D+00 -.838190317154D-08  .730000000000D+02
     .540006000000D+06  .400000000000D+01
21 18  1  6  8  0  0.0 -.444773584604D-03  .409272615798D-11  .000000000000D+00
     .660000000000D+02 -.687812500000D+02  .537593821512D-08  .285218095427D+00
    -.350549817085D-05  .242325075669D-01  .470317900181D-05  .515378574944D+04
     .547200000000D+06 -.305473804474D-06 -.169846363103D+00 -.987201929092D-07
     .942554794722D+00  .286781250000D+03 -.161041837895D+01 -.909109296623D-08
    -.226438003480D-09  .100000000000D+01  .198200000000D+04  .000000000000D+00
     .240000000000D+01  .000000000000D+00 -.102445483208D-07  .660000000000D+02
     .540006000000D+06  .400000000000D+01
22 18  1  6  8  0  0.0 -.247434712946D-03 -.129602995003D-10  .000000000000D+00
     .510000000000D+02 -.574687500000D+02  .510628412580D-08 -.278068234288D+01
    -.307895243168D-05  .717514764983D-02  .111367553473D-04  .515363197708D+04
     .547200000000D+06  .102445483208D-06  .868426895295D+00  .484287738800D-07
     .924506832895D+00  .140531250000D+03 -.163240788096D+01 -.814248202420D-08
     .535736601294D-10  .100000000000D+01  .198200000000D+04  .000000000000D+00
     .240000000000D+01  .000000000000D+00 -.176951289177D-07  .510000000000D+02
     .540006000000D+06  .400000000000D+01
23 18  1  6  8  0  0.0 -.219075474888D-03  .000000000000D+00  .000000000000D+00
     .750000000000D+02  .465937500000D+02  .507771150707D-08  .280626549876D+01
     .224262475967D-05  .118768375833D-01  .750459730625D-05  .515361388016D+04
     .547200000000D+06  .242143869400D-07  .195738982626D+01 -.119209289551D-06
     .943383433947D+00  .224875000000D+03 -.240613274074D+01 -.814391065514D-08
     .375372778640D-09  .100000000000D+01  .198200000000D+04  .000000000000D+00
     .240000000000D+01  .000000000000D+00 -.200234353542D-07  .750000000000D+02
     .540006000000D+06  .400000000000D+01
24 18  1  6  8  0  0.0 -.444245524704D-04 -.454747350886D-12  .000000000000D+00
     .740000000000D+02 -.434375000000D+01  .514414284563D-08  .224555332730D+01
    -.234693288803D-06  .662050489336D-02  .623054802418D-05  .515365857315D+04
     .547200000000D+06 -.115483999252D-06  .297853904045D+01 -.298023223877D-07
     .943236644747D+00  .250000000000D+03  .502164857205D+00 -.840713590524D-08
    -.293940815243D-09  .100000000000D+01  .198200000000D+04  .000000000000D+00
     .240000000000D+01  .000000000000D+00  .279396772385D-08  .740000000000D+02
     .540006000000D+06  .400000000000D+01
